[{"OBJECT_NAME":"JILIN-01 KUANFU 02B 6","OBJECT_ID":"2024-169F","EPOCH":"2026-03-09T21:43:38.712288","MEAN_MOTION":15.09238946,"ECCENTRICITY":0.00150747,"INCLINATION":97.5549,"RA_OF_ASC_NODE":159.9459,"ARG_OF_PERICENTER":324.4254,"MEAN_ANOMALY":35.5968,"EPHEMERIS_TYPE":0,"CLASSIFICATION_TYPE":"U","NORAD_CAT_ID":61194,"ELEMENT_SET_NO":999,"REV_AT_EPOCH":8086,"BSTAR":0.00036442477,"MEAN_MOTION_DOT":5.751e-5,"MEAN_MOTION_DDOT":0},{"OBJECT_NAME":"PIESAT-2 09","OBJECT_ID":"2024-241A","EPOCH":"2026-03-09T23:58:51.117600","MEAN_MOTION":15.13443879,"ECCENTRICITY":0.00016869,"INCLINATION":97.524,"RA_OF_ASC_NODE":17.815,"ARG_OF_PERICENTER":93.7737,"MEAN_ANOMALY":266.3687,"EPHEMERIS_TYPE":0,"CLASSIFICATION_TYPE":"U","NORAD_CAT_ID":62333,"ELEMENT_SET_NO":999,"REV_AT_EPOCH":6779,"BSTAR":0.00033496992,"MEAN_MOTION_DOT":5.923e-5,"MEAN_MOTION_DDOT":0}]
